0 FENGYUN 1C DEB
1 31773U 99025CFY 19278.77551018 +.00000633 +00000-0 +22125-3 0  9994
2 31773 099.0029 117.2207 0072811 084.5948 276.3539 14.37385316325195
0 FENGYUN 1C DEB
1 31776U 99025CGB 19279.18283656  .00000640  00000-0  39936-3 0  9999
2 31776  99.1556 265.9698 0062543 184.0960 235.4263 14.07539289634190
0 FENGYUN 1C DEB
1 31779U 99025CGE 19279.39654224  .00000112  00000-0  45611-4 0  9990
2 31779  99.3294 336.2147 0230537 277.6124  79.8931 14.35229812646426
0 FENGYUN 1C DEB
1 31780U 99025CGF 19279.33592724  .00000153  00000-0  38425-4 0  9992
2 31780  99.3042 125.8262 0178493  60.2408 301.6411 14.58498624656381
0 FENGYUN 1C DEB
1 31781U 99025CGG 19279.05500820  .00001091  00000-0  75235-3 0  9999
2 31781  99.4563   3.6834 0271198 243.7764 113.5282 13.85247981626670
0 FENGYUN 1C DEB
1 31781U 99025CGG 19278.47717895 +.00001080 +00000-0 +74554-3 0  9997
2 31781 099.4564 003.1001 0271149 245.3143 111.9560 13.85246560368763
0 FENGYUN 1C DEB
1 31783U 99025CGJ 19278.64409383 +.00000211 +00000-0 +14985-3 0  9995
2 31783 098.8534 339.6262 0107706 296.4890 217.9209 14.05198393574538
0 FENGYUN 1C DEB
1 31783U 99025CGJ 19279.40885597  .00000249  00000-0  17225-3 0  9996
2 31783  98.8533 340.3729 0107695 294.3268 126.6541 14.05198764633103
0 FENGYUN 1C DEB
1 31786U 99025CGM 19279.16257228  .00001229  00000-0  83324-3 0  9998
2 31786  97.6947 257.7679 0118351   7.3119 352.9740 13.98309991627571
0 FENGYUN 1C DEB
1 31787U 99025CGN 19279.47146317  .00001821  00000-0  45189-3 0  9994
2 31787  98.5763   6.7749 0110804 196.8411 162.9092 14.49499084658755
0 FENGYUN 1C DEB
1 31787U 99025CGN 19278.02182271 +.00001831 +00000-0 +45433-3 0  9996
2 31787 098.5763 005.3008 0110847 201.2744 158.3822 14.49493656328051
0 FENGYUN 1C DEB
1 31788U 99025CGP 19279.07522316 -.00000484  00000-0 -42181-3 0  9993
2 31788 102.5417 228.0592 0513265 298.1031 118.1703 13.31190337605657
0 GENESIS 2
1 31789U 07028A   19279.00364955  .00000317  00000-0  26067-4 0  9991
2 31789  64.5022  98.0129 0050481 275.6608  83.8759 15.17016082676415
0 GENESIS 2
1 31789U 07028A   19278.87180493 +.00000312 +00000-0 +25826-4 0  9995
2 31789 064.5022 098.4438 0050481 275.6688 083.8679 15.17015909676407
0 SL-24 DEB
1 31791U 07028C   19278.90453830 -.00000121 +00000-0 -17200-5 0  9998
2 31791 064.5221 147.7031 0860952 241.9625 203.1729 13.25153979593742
0 SL-24 DEB
1 31791U 07028C   19279.14542135 -.00000118  00000-0 -97588-6 0  9996
2 31791  64.5220 147.1208 0860944 241.9127 272.3168 13.25153995593810
0 COSMOS 2428
1 31792U 07029A   19278.89520062 -.00000221  00000-0 -93830-4 0  9993
2 31792  70.9332  89.3873 0006953  78.9431 281.2472 14.12433138632783
0 COSMOS 2428
1 31792U 07029A   19278.89520062 -.00000221 +00000-0 -93830-4 0  9993
2 31792 070.9332 089.3873 0006953 078.9431 281.2472 14.12433138632693
0 COSMOS 2428
1 31792U 07029A   19279.46176651 -.00000221  00000-0 -93982-4 0  9996
2 31792  70.9332  88.1985 0006975  77.9509 282.2393 14.12432938632862
0 COSMOS 2428
1 31792U 07029A   19279.81587028 -.00000216  00000-0 -90906-4 0  9996
2 31792  70.9333  87.4554 0007003  77.3052 282.8851 14.12432799632913
0 SL-16 R/B
1 31793U 07029B   19278.83914196 -.00000104 +00000-0 -29578-4 0  9991
2 31793 070.9750 063.3081 0002576 274.3042 190.8761 14.14415204633545
0 SL-16 R/B
1 31793U 07029B   19279.05491458 -.00000095  00000-0 -24874-4 0  9990
2 31793  70.9750  62.8548 0002573 274.2457 209.2992 14.14415195633611
0 SL-16 DEB
1 31794U 07029C   19278.75701616 -.00000086 +00000-0 -42474-4 0  9993
2 31794 071.0430 026.2688 0206821 184.3633 329.1479 13.71070504613957
0 SL-16 DEB
1 31795U 07029D   19278.75927786 +.00000027 +00000-0 +70278-4 0  9998
2 31795 070.9504 030.0586 0225788 283.2176 230.4376 13.67901671612606
0 SL-16 DEB
1 31796U 07029E   19278.85031545 +.00000016 +00000-0 +58596-4 0  9996
2 31796 071.0430 068.1890 0217265 234.7130 278.0405 13.68220651612759
0 SL-16 DEB
1 31796U 07029E   19279.79376641  .00000005  00000-0  47852-4 0  9990
2 31796  71.0432  66.3593 0217241 233.3903 245.0858 13.68220627612881
0 SL-16 DEB
1 31799U 07029F   19278.85048094 -.00000028 +00000-0 +15668-4 0  9993
2 31799 070.9425 057.3960 0229063 331.1507 143.7066 13.65775290611314
0 CHINASAT 6B
1 31800U 07031A   19278.91419074 -.00000381 +00000-0 +00000-0 0  9998
2 31800 000.0166 197.5728 0004213 009.8065 251.5432 01.00270883044890
0 FENGYUN 1C DEB
1 31804U 99025CGS 19278.69549337 +.00001083 +00000-0 +68592-3 0  9999
2 31804 098.3272 245.3758 0160304 067.9006 293.9093 13.99666240319627
0 FENGYUN 1C DEB
1 31805U 99025CGT 19279.30203755  .00000574  00000-0  20884-3 0  9996
2 31805  98.3694 103.5145 0553932 251.4870 102.5347 13.75253770617311
0 FENGYUN 1C DEB
1 31807U 99025CGV 19279.08651726  .00000352  00000-0  11709-3 0  9998
2 31807  99.0697 225.0487 0126563   8.6104 351.7213 14.40041850649155
0 FENGYUN 1C DEB
1 31808U 99025CGW 19279.41678562  .00000700  00000-0  43093-3 0  9991
2 31808  99.2339 343.1599 0086659  57.3071 303.6417 14.07081949630330
0 FENGYUN 1C DEB
1 31808U 99025CGW 19278.42127758 +.00000631 +00000-0 +39105-3 0  9999
2 31808 099.2338 342.1435 0086845 060.1056 300.8704 14.07080498255462
0 FENGYUN 1C DEB
1 31810U 99025CGY 19278.32497291 +.00000198 +00000-0 +62782-4 0  9999
2 31810 098.4986 319.0981 0248326 074.2027 288.6388 14.34132776319405
0 FENGYUN 1C DEB
1 31810U 99025CGY 19279.30172546  .00000204  00000-0  64375-4 0  9999
2 31810  98.4985 320.0593 0248297  71.3133 291.4829 14.34133315646267
0 FENGYUN 1C DEB
1 31813U 99025CHB 19279.23862464  .00000191  00000-0  66901-4 0  9991
2 31813  99.4724  77.0639 0155479 109.4737 252.3320 14.41263847655538
0 FENGYUN 1C DEB
1 31813U 99025CHB 19278.89150994 +.00000191 +00000-0 +66951-4 0  9995
2 31813 099.4724 076.6793 0155482 110.4800 251.3154 14.41263702646467
0 FENGYUN 1C DEB
1 31815U 99025CHD 19278.26052155 -.00000041 +00000-0 +11095-5 0  9993
2 31815 098.7552 300.5725 0058234 304.4925 055.0754 14.09794897636859
0 FENGYUN 1C DEB
1 31815U 99025CHD 19279.32509540 -.00000078  00000-0 -19200-4 0  9992
2 31815  98.7551 301.6083 0058209 301.4321  58.1166 14.09794908636984
0 FENGYUN 1C DEB
1 31816U 99025CHE 19278.49534738 +.00000254 +00000-0 +23262-3 0  9993
2 31816 098.8152 098.5807 0130783 193.0521 193.4180 13.87698575622997
0 FENGYUN 1C DEB
1 31817U 99025CHF 19278.40744200 +.00000453 +00000-0 +14774-3 0  9991
2 31817 098.9389 129.8284 0091664 014.4318 345.9455 14.41460063387023
0 FENGYUN 1C DEB
1 31820U 99025CHJ 19278.08061430 +.00000575 +00000-0 +98133-4 0  9993
2 31820 098.9341 221.4998 0261425 109.8307 253.1268 14.53364935652040
0 FENGYUN 1C DEB
1 31821U 99025CHK 19279.20994662  .00002741  00000-0  13642-2 0  9998
2 31821  98.1937  12.8575 0408331 282.9217  72.6642 13.82115218621077
0 FENGYUN 1C DEB
1 31823U 99025CHM 19278.82805919 +.00000799 +00000-0 +27908-3 0  9995
2 31823 099.5360 058.3201 0057123 347.7328 012.2461 14.37541968640804
0 FENGYUN 1C DEB
1 31825U 99025CHP 19278.87024498 +.00000140 +00000-0 +79996-4 0  9992
2 31825 098.7157 310.7634 0177746 004.1761 356.0848 14.15990005636028
0 FENGYUN 1C DEB
1 31826U 99025CHQ 19278.29786174 +.00000162 +00000-0 +97602-4 0  9993
2 31826 098.6871 308.6403 0130873 200.9454 219.8347 14.14890383638182
0 FENGYUN 1C DEB
1 31828U 99025CHS 19278.45061355 +.00002234 +00000-0 +66533-3 0  9990
2 31828 099.2926 164.7042 0174314 150.2992 210.8227 14.35793107259584
0 FENGYUN 1C DEB
1 31829U 99025CHT 19278.65516319 +.00000105 +00000-0 +11308-3 0  9993
2 31829 099.0081 165.7387 0172374 179.1821 210.8607 13.86343336628158
0 FENGYUN 1C DEB
1 31829U 99025CHT 19279.18494149  .00000105  00000-0  11267-3 0  9992
2 31829  99.0080 166.2489 0172399 177.7464 334.9021 13.86343496628212
0 FENGYUN 1C DEB
1 31830U 99025CHU 19278.94326407 +.00000475 +00000-0 +47199-3 0  9991
2 31830 099.0636 083.0883 0205189 184.1926 329.2492 13.74009639616383
0 FENGYUN 1C DEB
1 31834U 99025CHY 19279.27446018 -.00000016  00000-0  14248-4 0  9995
2 31834  98.3065 289.3185 0174077 329.5523  29.5623 14.00012202638672
0 FENGYUN 1C DEB
1 31837U 99025CJB 19279.39739866  .00000370  00000-0  85290-4 0  9994
2 31837  98.3625 332.0919 0143663 245.3811 113.2363 14.55498871654119
0 FENGYUN 1C DEB
1 31837U 99025CJB 19278.36621051 +.00000371 +00000-0 +85427-4 0  9999
2 31837 098.3626 331.0590 0143611 248.5838 109.9987 14.55497941653278
0 FENGYUN 1C DEB
1 31842U 99025CJG 19278.04796440 +.00002208 +00000-0 +83116-4 0  9999
2 31842 098.1386 018.0241 0180925 049.0322 312.6403 15.14440555663509
0 FENGYUN 1C DEB
1 31842U 99025CJG 19279.03903138  .00002266  00000-0  85232-4 0  9998
2 31842  98.1385  19.0841 0180842  45.6830 315.9066 15.14445122667992
0 FENGYUN 1C DEB
1 31848U 99025CJN 19278.51787208 +.00000599 +00000-0 +92228-4 0  9994
2 31848 096.7361 176.2378 0139692 073.9324 287.7216 14.69773104656866
0 FENGYUN 1C DEB
1 31848U 99025CJN 19279.47098591  .00000613  00000-0  94310-4 0  9991
2 31848  96.7360 177.0254 0139687  70.8454 290.7816 14.69774493659091
0 FENGYUN 1C DEB
1 31854U 99025CJU 19278.91669506 +.00000007 +00000-0 +34073-4 0  9993
2 31854 098.9689 310.9545 0073179 300.3928 059.0018 14.00073148376277
0 FENGYUN 1C DEB
1 31854U 99025CJU 19278.91669506  .00000007  00000-0  34073-4 0  9993
2 31854  98.9689 310.9545 0073179 300.3928  59.0018 14.00073148635859
0 FENGYUN 1C DEB
1 31855U 99025CJV 19278.50340515 +.00002907 +00000-0 +18037-3 0  9997
2 31855 096.6887 182.4611 0208355 357.3976 002.6143 14.94056599304942
0 FENGYUN 1C DEB
1 31857U 99025CJX 19278.08130591 +.00000292 +00000-0 +32577-3 0  9993
2 31857 096.2028 028.1471 0330847 037.2667 325.0947 13.53668251309846
